[{"OBJECT_NAME":"NUSAT-33 (ALBANIA-2)","OBJECT_ID":"2023-001AQ","EPOCH":"2026-03-09T22:33:27.663264","MEAN_MOTION":15.26923259,"ECCENTRICITY":0.00076854,"INCLINATION":97.3178,"RA_OF_ASC_NODE":131.8399,"ARG_OF_PERICENTER":52.546,"MEAN_ANOMALY":307.6477,"EPHEMERIS_TYPE":0,"CLASSIFICATION_TYPE":"U","NORAD_CAT_ID":55047,"ELEMENT_SET_NO":999,"REV_AT_EPOCH":17716,"BSTAR":0.0004947656,"MEAN_MOTION_DOT":0.00013029,"MEAN_MOTION_DDOT":0},{"OBJECT_NAME":"STARLINK-36198","OBJECT_ID":"2025-303E","EPOCH":"2026-03-09T16:00:03.000096","MEAN_MOTION":15.27564344,"ECCENTRICITY":0.0001517,"INCLINATION":43.0009,"RA_OF_ASC_NODE":311.2223,"ARG_OF_PERICENTER":270.5874,"MEAN_ANOMALY":221.4743,"EPHEMERIS_TYPE":0,"CLASSIFICATION_TYPE":"U","NORAD_CAT_ID":67167,"ELEMENT_SET_NO":999,"REV_AT_EPOCH":581,"BSTAR":0.0014632686,"MEAN_MOTION_DOT":0.00040204,"MEAN_MOTION_DDOT":0}]
